OBJECT_NAME,OBJECT_ID,EPOCH,MEAN_MOTION,ECCENTRICITY,INCLINATION,RA_OF_ASC_NODE,ARG_OF_PERICENTER,MEAN_ANOMALY,EPHEMERIS_TYPE,CLASSIFICATION_TYPE,NORAD_CAT_ID,ELEMENT_SET_NO,REV_AT_EPOCH,BSTAR,MEAN_MOTION_DOT,MEAN_MOTION_DDOT
PERSEUS-M1,2014-033AF,2026-05-12T20:15:14.783904,14.95508185,.0012852,97.9627,76.4037,58.9907,301.2573,0,U,40039,999,64535,.11845E-3,.1253E-4,0
POLYITAN-1,2014-033AJ,2026-05-12T19:05:25.514016,15.32014165,.0005374,98.0975,155.7426,266.9927,93.0697,0,U,40042,999,64817,.36421E-3,.11177E-3,0
TIGRISAT,2014-033AK,2026-05-12T16:12:02.979072,14.85006520,.004926,97.7790,283.5135,189.5579,170.4704,0,U,40043,999,64035,.17158E-3,.144E-4,0
AEROCUBE 6A,2014-033AM,2026-05-12T08:25:54.539616,14.97703380,.0040242,97.7213,299.6990,133.8203,226.6358,0,U,40045,999,64125,.40612E-3,.4778E-4,0
AEROCUBE 6B,2014-033AN,2026-05-12T17:19:31.232064,14.99128147,.0037922,97.7172,299.7846,126.0997,234.3747,0,U,40046,999,64144,.34005E-3,.4135E-4,0
CANX-4,2014-034C,2026-05-12T21:21:05.444640,14.81197197,.0013881,98.3171,6.9004,121.4274,238.8296,0,U,40055,999,63930,.7807E-4,.551E-5,0
CANX-5,2014-034D,2026-05-12T09:58:29.227584,14.81213592,.001387,98.3172,6.4501,123.0156,237.2390,0,U,40056,999,63004,.77233E-4,.545E-5,0
UKUBE-1,2014-037F,2026-05-12T19:00:12.841056,15.12973120,.0000438,98.4246,132.3637,59.0138,301.1134,0,U,40074,999,64320,.29265E-3,.5085E-4,0
BRITE-PL2 (HEWELIUSZ),2014-049B,2026-05-12T19:42:54.549216,14.94457344,.0013105,97.9057,244.5603,222.8098,137.2102,0,U,40119,999,63616,.75087E-4,.751E-5,0
AEROCUBE 5C,2015-058B,2026-05-12T19:57:21.649248,14.91248074,.0129792,64.7690,12.5629,77.1744,284.3833,0,U,40965,999,36038,.18659E-3,.2007E-4,0
AEROCUBE 7,2015-058C,2026-05-12T20:39:57.720672,14.95444677,.0119577,64.7635,355.4416,75.8590,285.5777,0,U,40966,999,36067,.23954E-3,.2883E-4,0
FOX-1A (AO-85),2015-058D,2026-05-12T20:49:13.836864,14.90756343,.0128975,64.7768,28.7277,70.4406,291.0579,0,U,40967,999,10830,.19978E-3,.2128E-4,0
SINOD-D 1,2015-058E,2026-05-12T20:14:16.513152,14.95623100,.0117458,64.7765,9.5719,67.2478,294.0998,0,U,40968,999,11137,.2483E-3,.2995E-4,0
SNAP-3 ALICE,2015-058G,2026-05-12T09:06:33.108768,15.53340210,.0032768,64.7532,226.9821,30.9340,329.3724,0,U,40970,999,11131,.79509E-3,.51771E-3,0
LMRST-SAT,2015-058H,2026-05-12T19:32:02.059008,14.90381474,.0130757,64.7775,25.1660,72.4903,289.0449,0,U,40971,999,10828,.19722E-3,.2086E-4,0
SNAP-3 EDDIE,2015-058J,2026-05-12T20:19:54.949728,15.54530871,.0033276,64.7453,216.3592,34.4338,325.8951,0,U,40972,999,11352,.76455E-3,.52043E-3,0
PROPCUBE 3,2015-058K,2026-05-12T20:51:15.532128,14.94010924,.0122938,64.7701,2.8629,73.9820,287.4793,0,U,40973,999,10952,.21853E-3,.2531E-4,0
BISONSAT,2015-058L,2026-05-12T19:15:07.475040,15.15462139,.0078716,64.7595,287.9745,62.5712,298.3390,0,U,40974,999,11025,.39634E-3,.7942E-4,0
SNAP-3 JIMI,2015-058M,2026-05-12T13:41:24.895392,15.01926667,.0104916,64.7661,332.4296,70.1368,291.1020,0,U,40975,999,10887,.27992E-3,.3947E-4,0
PROPCUBE 1 (FLORA),2015-058N,2026-05-12T20:53:43.060128,14.89015296,.0129573,64.7759,44.6729,74.7488,286.7905,0,U,40976,999,11100,.18845E-3,.1904E-4,0
SINOD-D 3,2015-058P,2026-05-12T19:51:41.940000,14.93738629,.0118063,64.7740,26.2123,72.2665,289.1293,0,U,40977,999,10947,.24122E-3,.2759E-4,0
HORYU-4,2016-012D,2026-05-12T20:48:56.750400,15.78006687,.0005461,30.9892,334.3982,23.8940,336.1970,0,U,41340,999,56520,.74881E-3,.135031E-2,0
RAVAN,2016-067B,2026-05-12T14:28:32.494368,15.51392398,.0007219,97.9946,18.1594,120.7695,239.4267,0,U,41849,999,52217,.49118E-3,.28903E-3,0
CELTEE 1,2016-067C,2026-05-12T01:17:30.486048,15.19318741,.00018418,98.0723,356.1585,60.3871,299.7545,0,U,41850,999,52039,.14983376E-3,.3086E-4,0
OPTICUBE 04,2016-067D,2026-05-12T00:28:53.366304,15.09502308,.00144165,98.0738,342.4139,237.4226,122.5610,0,U,41851,999,51971,.76477622E-4,.1156E-4,0
AEROCUBE 8D,2016-067E,2026-05-12T08:59:41.562240,15.23885872,.0001926,98.0737,359.8283,249.6458,110.4571,0,U,41852,999,52061,.19826E-3,.4704E-4,0
AEROCUBE 8C,2016-067F,2026-05-12T09:43:52.716864,15.24123976,.0005476,98.0607,357.1359,168.8426,191.2932,0,U,41853,999,52061,.18565E-3,.4433E-4,0
CORVUS BC2,2017-042X,2026-05-12T09:15:57.554784,15.06064122,.0011929,97.4038,295.1419,229.9139,130.1043,0,U,42846,999,48167,.16048E-3,.2286E-4,0
CORVUS BC1,2017-042Y,2026-05-12T10:49:43.001760,15.06236515,.0011269,97.4070,295.9952,203.3955,156.6762,0,U,42847,999,48171,.15841E-3,.2267E-4,0
MAKERSAT 0,2017-073D,2026-05-12T04:12:10.429344,15.30547279,.01118347,97.4681,14.4471,41.9670,319.0072,0,U,43016,999,46095,.44166751E-3,.15764E-3,0
