PERSEUS-M1              
1 40039U 14033AF  26132.84392111  .00001253  00000+0  11845-3 0  9992
2 40039  97.9627  76.4037 0012852  58.9907 301.2573 14.95508185645351
POLYITAN-1              
1 40042U 14033AJ  26132.79543419  .00011177  00000+0  36421-3 0  9992
2 40042  98.0975 155.7426 0005374 266.9927  93.0697 15.32014165648178
TIGRISAT                
1 40043U 14033AK  26132.67503448  .00001440  00000+0  17158-3 0  9996
2 40043  97.7790 283.5135 0049260 189.5579 170.4704 14.85006520640356
AEROCUBE 6A             
1 40045U 14033AM  26132.35132569  .00004778  00000+0  40612-3 0  9993
2 40045  97.7213 299.6990 0040242 133.8203 226.6358 14.97703380641252
AEROCUBE 6B             
1 40046U 14033AN  26132.72188926  .00004135  00000+0  34005-3 0  9999
2 40046  97.7172 299.7846 0037922 126.0997 234.3747 14.99128147641446
CANX-4                  
1 40055U 14034C   26132.88964635  .00000551  00000+0  78070-4 0  9995
2 40055  98.3171   6.9004 0013881 121.4274 238.8296 14.81197197639303
CANX-5                  
1 40056U 14034D   26132.41561606  .00000545  00000+0  77233-4 0  9999
2 40056  98.3172   6.4501 0013870 123.0156 237.2390 14.81213592630045
UKUBE-1                 
1 40074U 14037F   26132.79181529  .00005085  00000+0  29265-3 0  9990
2 40074  98.4246 132.3637 0000438  59.0138 301.1134 15.12973120643205
BRITE-PL2 (HEWELIUSZ)   
1 40119U 14049B   26132.82146469  .00000751  00000+0  75087-4 0  9990
2 40119  97.9057 244.5603 0013105 222.8098 137.2102 14.94457344636162
AEROCUBE 5C             
1 40965U 15058B   26132.83150057  .00002007  00000+0  18659-3 0  9996
2 40965  64.7690  12.5629 0129792  77.1744 284.3833 14.91248074360384
AEROCUBE 7              
1 40966U 15058C   26132.86108473  .00002883  00000+0  23954-3 0  9991
2 40966  64.7635 355.4416 0119577  75.8590 285.5777 14.95444677360674
FOX-1A (AO-85)          
1 40967U 15058D   26132.86752126  .00002128  00000+0  19978-3 0  9995
2 40967  64.7768  28.7277 0128975  70.4406 291.0579 14.90756343108309
SINOD-D 1               
1 40968U 15058E   26132.84324668  .00002995  00000+0  24830-3 0  9995
2 40968  64.7765   9.5719 0117458  67.2478 294.0998 14.95623100111370
SNAP-3 ALICE            
1 40970U 15058G   26132.37954987  .00051771  00000+0  79509-3 0  9998
2 40970  64.7532 226.9821 0032768  30.9340 329.3724 15.53340210111315
LMRST-SAT               
1 40971U 15058H   26132.81391272  .00002086  00000+0  19722-3 0  9996
2 40971  64.7775  25.1660 0130757  72.4903 289.0449 14.90381474108283
SNAP-3 EDDIE            
1 40972U 15058J   26132.84716377  .00052043  00000+0  76455-3 0  9991
2 40972  64.7453 216.3592 0033276  34.4338 325.8951 15.54530871113521
PROPCUBE 3              
1 40973U 15058K   26132.86892977  .00002531  00000+0  21853-3 0  9994
2 40973  64.7701   2.8629 0122938  73.9820 287.4793 14.94010924109522
BISONSAT                
1 40974U 15058L   26132.80216985  .00007942  00000+0  39634-3 0  9995
2 40974  64.7595 287.9745 0078716  62.5712 298.3390 15.15462139110256
SNAP-3 JIMI             
1 40975U 15058M   26132.57042703  .00003947  00000+0  27992-3 0  9990
2 40975  64.7661 332.4296 0104916  70.1368 291.1020 15.01926667108874
PROPCUBE 1 (FLORA)      
1 40976U 15058N   26132.87063727  .00001904  00000+0  18845-3 0  9991
2 40976  64.7759  44.6729 0129573  74.7488 286.7905 14.89015296111008
SINOD-D 3               
1 40977U 15058P   26132.82756875  .00002759  00000+0  24122-3 0  9994
2 40977  64.7740  26.2123 0118063  72.2665 289.1293 14.93738629109477
HORYU-4                 
1 41340U 16012D   26132.86732350  .00135031  00000+0  74881-3 0  9993
2 41340  30.9892 334.3982 0005461  23.8940 336.1970 15.78006687565204
RAVAN                   
1 41849U 16067B   26132.60315387  .00028903  00000+0  49118-3 0  9990
2 41849  97.9946  18.1594 0007219 120.7695 239.4267 15.51392398522175
CELTEE 1                
1 41850U 16067C   26132.05382507  .00003086  00000+0  14983-3 0  9996
2 41850  98.0723 356.1585 0001841  60.3871 299.7545 15.19318741520391
OPTICUBE 04             
1 41851U 16067D   26132.02006211  .00001156  00000+0  76478-4 0  9993
2 41851  98.0738 342.4139 0014416 237.4226 122.5610 15.09502308519717
AEROCUBE 8D             
1 41852U 16067E   26132.37478660  .00004704  00000+0  19826-3 0  9998
2 41852  98.0737 359.8283 0001926 249.6458 110.4571 15.23885872520612
AEROCUBE 8C             
1 41853U 16067F   26132.40547126  .00004433  00000+0  18565-3 0  9995
2 41853  98.0607 357.1359 0005476 168.8426 191.2932 15.24123976520614
CORVUS BC2              
1 42846U 17042X   26132.38608281  .00002286  00000+0  16048-3 0  9997
2 42846  97.4038 295.1419 0011929 229.9139 130.1043 15.06064122481670
CORVUS BC1              
1 42847U 17042Y   26132.45119215  .00002267  00000+0  15841-3 0  9999
2 42847  97.4070 295.9952 0011269 203.3955 156.6762 15.06236515481719
MAKERSAT 0              
1 43016U 17073D   26132.17512071  .00015764  00000+0  44167-3 0  9997
2 43016  97.4681  14.4471 0111834  41.9670 319.0072 15.30547279460956
